     2.11           N: GPS NAV DATA                         RINEX VERSION / TYPE
teqc  2016Nov7                          20210713 00:25:46UTCPGM / RUN BY / DATE
    18                                                      LEAP SECONDS
    4.6570D-09  1.4900D-08 -5.9600D-08 -1.1920D-07          ION ALPHA
    7.9870D+04  8.1920D+04 -6.5540D+04 -4.5880D+05          ION BETA
   -9.313225746150D-10-1.776356839400D-15   233472     2166 DELTA-UTC: A0,A1,T,W
Linux2.4.20-8|i386|gcc|Win32-MinGW32|=                      COMMENT
NetR9 5.33          Receiver Operator   12-JUL-21 00:00:01  COMMENT
                                                            END OF HEADER
13 21  7 12 10  0  0.0 1.566670835020D-04 5.002220859750D-12 0.000000000000D+00
    1.500000000000D+01 6.750000000000D+00 4.293035965040D-09 1.414084323090D-01
    2.849847078320D-07 5.112437764180D-03 9.577721357350D-06 5.153682369230D+03
    1.224000000000D+05-5.587935447690D-08-2.096506451110D+00 1.210719347000D-07
    9.679919660080D-01 2.011250000000D+02 9.558205329390D-01-7.861041729660D-09
    6.471698143630D-10 1.000000000000D+00 2.166000000000D+03 0.000000000000D+00
    2.400000000000D+00 0.000000000000D+00-1.117587089540D-08 1.500000000000D+01
    1.152180000000D+05 4.000000000000D+00
 5 21  7 12 10  0  0.0-4.767300561070D-05-1.136868377220D-12 0.000000000000D+00
    3.900000000000D+01-1.277500000000D+02 4.335537735410D-09 1.090907040840D+00
   -6.517395377160D-06 6.196005502720D-03 7.743015885350D-06 5.153914812090D+03
    1.224000000000D+05-9.499490261080D-08 2.970772033860D+00-2.235174179080D-08
    9.572668746930D-01 2.330937500000D+02 9.269538749840D-01-8.091408468210D-09
   -2.782258749390D-10 1.000000000000D+00 2.166000000000D+03 0.000000000000D+00
    2.400000000000D+00 0.000000000000D+00-1.117587089540D-08 3.900000000000D+01
    1.152180000000D+05 4.000000000000D+00
 9 21  7 12 10  0  0.0-3.551482222970D-04-1.477928890380D-12 0.000000000000D+00
    7.200000000000D+01-1.228125000000D+01 4.435184743250D-09 1.125170089060D+00
   -5.941838026050D-07 1.922055496830D-03 9.866431355480D-06 5.153753459930D+03
    1.224000000000D+05 0.000000000000D+00-2.245888866580D+00-7.078051567080D-08
    9.533874470880D-01 1.840000000000D+02 1.819926115980D+00-7.930687487820D-09
    6.032394130570D-10 1.000000000000D+00 2.166000000000D+03 0.000000000000D+00
    2.400000000000D+00 0.000000000000D+00 1.396983861920D-09 7.200000000000D+01
    1.152180000000D+05 4.000000000000D+00
15 21  7 12 10  0  0.0-1.360881142320D-04 2.614797267600D-12 0.000000000000D+00
    4.900000000000D+01-1.693750000000D+01 5.049853203800D-09-2.043596917390D-01
   -7.655471563340D-07 1.332372683100D-02 1.053698360920D-05 5.153646839140D+03
    1.224000000000D+05-3.166496753690D-08-2.346174291330D+00 2.253800630570D-07
    9.291722966240D-01 1.616250000000D+02 9.975402062740D-01-8.396778330950D-09
    6.025250975890D-10 1.000000000000D+00 2.166000000000D+03 0.000000000000D+00
    2.400000000000D+00 0.000000000000D+00-1.071020960810D-08 4.900000000000D+01
    1.152180000000D+05 4.000000000000D+00
29 21  7 12 10  0  0.0-3.788927569990D-04-6.025402399250D-12 0.000000000000D+00
    5.700000000000D+01 1.317187500000D+02 3.883018886180D-09 7.744747925550D-01
    6.588175892830D-06 1.972375554030D-03 7.670372724530D-06 5.153614936830D+03
    1.224000000000D+05-3.725290298460D-09 9.861844612160D-01-3.166496753690D-08
    9.836829576120D-01 2.425000000000D+02 2.226113112190D+00-7.789967340550D-09
    6.928860043400D-11 1.000000000000D+00 2.166000000000D+03 0.000000000000D+00
    2.400000000000D+00 0.000000000000D+00-9.778887033460D-09 5.700000000000D+01
    1.152180000000D+05 4.000000000000D+00
 2 21  7 12 10  0  0.0-6.190184503790D-04-2.728484105320D-12 0.000000000000D+00
    7.600000000000D+01 1.296875000000D+01 4.834129932340D-09-1.253510699880D+00
    1.028180122380D-06 2.020764676850D-02 1.043081283570D-06 5.153710056300D+03
    1.224000000000D+05-2.253800630570D-07 1.886256145640D+00 3.688037395480D-07
    9.632362021970D-01 3.650000000000D+02-1.506794640980D+00-8.681790202840D-09
   -6.893144269980D-11 1.000000000000D+00 2.166000000000D+03 0.000000000000D+00
    2.400000000000D+00 0.000000000000D+00-1.769512891770D-08 7.600000000000D+01
    1.152180000000D+05 4.000000000000D+00
30 21  7 12  9 59 44.0-4.498441703620D-04-4.433786671140D-12 0.000000000000D+00
    1.000000000000D+00 7.500000000000D-01 5.566303287450D-09-2.289202890950D+00
   -2.291053533550D-07 5.346670746800D-03 5.051493644710D-06 5.153669651030D+03
    1.223840000000D+05 6.146728992460D-08-1.156657940730D+00-1.285225152970D-07
    9.363058128720D-01 2.727500000000D+02-2.743995907950D+00-8.471424297400D-09
    1.214336296270D-10 1.000000000000D+00 2.166000000000D+03 0.000000000000D+00
    2.400000000000D+00 0.000000000000D+00 3.725290298460D-09 1.000000000000D+00
    1.165380000000D+05 4.000000000000D+00
18 21  7 12 10  0  0.0 3.415029495950D-04-2.614797267600D-12 0.000000000000D+00
    4.800000000000D+01 3.156250000000D+00 4.535546066560D-09-1.188856140060D+00
    1.713633537290D-07 1.645721495150D-03 6.407499313350D-07 5.153652589800D+03
    1.224000000000D+05-1.061707735060D-07 1.982117501300D+00-5.401670932770D-08
    9.683900113880D-01 3.729687500000D+02 2.885812857210D+00-8.364634134870D-09
   -7.750322832060D-11 1.000000000000D+00 2.166000000000D+03 0.000000000000D+00
    2.400000000000D+00 0.000000000000D+00-8.381903171540D-09 5.600000000000D+02
    1.188180000000D+05 4.000000000000D+00
24 21  7 12 10  0  0.0 1.710667274890D-04 1.466560206610D-11 0.000000000000D+00
    5.900000000000D+01 4.343750000000D+00 5.617734001170D-09-1.166351246160D+00
    3.837049007420D-07 1.121515256820D-02 4.732981324200D-06 5.153710554120D+03
    1.224000000000D+05 2.961605787280D-07-1.252216267540D+00 6.146728992460D-08
    9.344767585820D-01 2.708750000000D+02 7.431126026280D-01-8.484639133560D-09
    1.882221259210D-10 1.000000000000D+00 2.166000000000D+03 0.000000000000D+00
    2.400000000000D+00 0.000000000000D+00 2.793967723850D-09 5.900000000000D+01
    1.203360000000D+05 4.000000000000D+00
23 21  7 12 10  0  0.0 8.568400517110D-05-5.115907697470D-12 0.000000000000D+00
    6.200000000000D+01-1.364687500000D+02 4.116957202080D-09-1.917587841040D+00
   -6.953254342080D-06 1.379317371170D-03 7.491558790210D-06 5.153663991930D+03
    1.224000000000D+05 2.235174179080D-08 2.981636238440D+00 6.519258022310D-08
    9.651754946790D-01 2.373437500000D+02 2.614579266760D+00-7.939973588910D-09
   -1.382200431340D-10 1.000000000000D+00 2.166000000000D+03 0.000000000000D+00
    2.400000000000D+00 0.000000000000D+00-8.381903171540D-09 8.300000000000D+02
    1.218060000000D+05 4.000000000000D+00
30 21  7 12 11 59 44.0-4.498758353290D-04-4.433786671140D-12 0.000000000000D+00
    6.300000000000D+01 3.000000000000D+00 5.451655654770D-09-1.239056011560D+00
    5.587935447690D-08 5.346597521570D-03 4.554167389870D-06 5.153669239040D+03
    1.295840000000D+05 7.450580596920D-08-1.156719317450D+00-1.862645149230D-08
    9.363070680560D-01 2.734062500000D+02-2.743952095020D+00-8.473924401540D-09
    1.960795960740D-10 1.000000000000D+00 2.166000000000D+03 0.000000000000D+00
    2.400000000000D+00 0.000000000000D+00 3.725290298460D-09 6.300000000000D+01
    1.224180000000D+05 4.000000000000D+00
23 21  7 12 12  0  0.0 8.564721792940D-05-5.115907697470D-12 0.000000000000D+00
    6.300000000000D+01-1.310625000000D+02 4.090884687480D-09-8.666881981390D-01
   -6.658956408500D-06 1.379429595540D-03 7.871538400650D-06 5.153665851590D+03
    1.296000000000D+05-9.499490261080D-08 2.981579892690D+00-4.842877388000D-08
    9.651742321810D-01 2.324375000000D+02 2.613862391550D+00-7.896400345340D-09
   -2.632252501030D-10 1.000000000000D+00 2.166000000000D+03 0.000000000000D+00
    2.400000000000D+00 0.000000000000D+00-8.381903171540D-09 8.310000000000D+02
    1.224180000000D+05 4.000000000000D+00
18 21  7 12 12  0  0.0 3.414843231440D-04-2.614797267600D-12 0.000000000000D+00
    4.900000000000D+01-5.250000000000D+00 4.585905307080D-09-1.382207864790D-01
   -4.619359970090D-07 1.646685530430D-03 7.711350917820D-07 5.153654870990D+03
    1.296000000000D+05 1.676380634310D-08 1.982057512880D+00-4.842877388000D-08
    9.683889083480D-01 3.709687500000D+02 2.885370663890D+00-8.426779580620D-09
   -1.600066649200D-10 1.000000000000D+00 2.166000000000D+03 0.000000000000D+00
    2.400000000000D+00 0.000000000000D+00-8.381903171540D-09 5.610000000000D+02
    1.224180000000D+05 4.000000000000D+00
13 21  7 12 12  0  0.0 1.567029394210D-04 5.002220859750D-12 0.000000000000D+00
    1.600000000000D+01 6.375000000000D+00 4.239462304910D-09 1.191529205920D+00
    2.551823854450D-07 5.112771177660D-03 9.573996067050D-06 5.153683195110D+03
    1.296000000000D+05-7.823109626770D-08-2.096562444300D+00-2.235174179080D-08
    9.679961514170D-01 1.982500000000D+02 9.558729449050D-01-7.854970048170D-09
    5.339508126230D-10 1.000000000000D+00 2.166000000000D+03 0.000000000000D+00
    2.400000000000D+00 0.000000000000D+00-1.117587089540D-08 1.600000000000D+01
    1.224180000000D+05 4.000000000000D+00
20 21  7 12 12  0  0.0 5.202689208090D-04-3.410605131650D-13 0.000000000000D+00
    1.100000000000D+01-1.152500000000D+02 4.883060541930D-09 5.458404286050D-01
   -6.094574928280D-06 6.068903021510D-03 5.679205060010D-06 5.151761613850D+03
    1.296000000000D+05 1.378357410430D-07 2.860775855460D+00 4.284083843230D-08
    9.391769446720D-01 2.594687500000D+02 3.043146290960D+00-8.431065473430D-09
   -2.667968274440D-10 1.000000000000D+00 2.166000000000D+03 0.000000000000D+00
    2.400000000000D+00 0.000000000000D+00-8.381903171540D-09 1.100000000000D+01
    1.224180000000D+05 4.000000000000D+00
